{
  "type": "FeatureCollection",
  "features": [
    {
      "type": "Feature",
      "properties": {
        "norad_id": 40069,
        "name": "METEOR-M 2",
        "group": "weather",
        "lat": -18.41152855049763,
        "lon": -27.13458452719048,
        "alt_km": 828.8967875214184,
        "timestamp": "2025-12-18T15:47:10.862447+00:00",
        "meta_object_name": "METEOR-M 2",
        "meta_object_id": "2014-037A",
        "meta_epoch": "2025-12-18T05:44:13.698816",
        "meta_mean_motion": 14.21387699,
        "meta_eccentricity": 0.00052011,
        "meta_inclination": 98.4897,
        "meta_ra_of_asc_node": 329.6129,
        "meta_arg_of_pericenter": 192.4544,
        "meta_mean_anomaly": 167.6507,
        "meta_ephemeris_type": 0,
        "meta_classification_type": "U",
        "meta_norad_cat_id": 40069,
        "meta_element_set_no": 999,
        "meta_rev_at_epoch": 59361,
        "meta_bstar": -6.5226197e-05,
        "meta_mean_motion_dot": -1.84e-06,
        "meta_mean_motion_ddot": 0,
        "tle_line1": "1 40069U 14037A   25352.23904744 -.00000184  00000+0 -65226-4 0  9993",
        "tle_line2": "2 40069  98.4897 329.6129 0005201 192.4544 167.6507 14.21387699593611"
      },
      "geometry": {
        "type": "Point",
        "coordinates": [
          -27.13458452719048,
          -18.41152855049763
        ]
      }
    },
    {
      "type": "Feature",
      "properties": {
        "norad_id": 40267,
        "name": "HIMAWARI-8",
        "group": "weather",
        "lat": 0.0033246874594413606,
        "lon": 104.9723564703974,
        "alt_km": 35789.67132044078,
        "timestamp": "2025-12-18T15:47:10.862459+00:00",
        "meta_object_name": "HIMAWARI-8",
        "meta_object_id": "2014-060A",
        "meta_epoch": "2025-12-18T04:44:38.795136",
        "meta_mean_motion": 1.00271988,
        "meta_eccentricity": 8.576e-05,
        "meta_inclination": 0.0081,
        "meta_ra_of_asc_node": 89.0347,
        "meta_arg_of_pericenter": 203.2977,
        "meta_mean_anomaly": 6.5629,
        "meta_ephemeris_type": 0,
        "meta_classification_type": "U",
        "meta_norad_cat_id": 40267,
        "meta_element_set_no": 999,
        "meta_rev_at_epoch": 4094,
        "meta_bstar": 0,
        "meta_mean_motion_dot": -2.5e-06,
        "meta_mean_motion_ddot": 0,
        "tle_line1": "1 40267U 14060A   25352.19767124 -.00000250  00000+0  00000+0 0  9990",
        "tle_line2": "2 40267   0.0081  89.0347 0000857 203.2977   6.5629  1.00271988 40942"
      },
      "geometry": {
        "type": "Point",
        "coordinates": [
          104.9723564703974,
          0.0033246874594413606
        ]
      }
    },
    {
      "type": "Feature",
      "properties": {
        "norad_id": 40367,
        "name": "FENGYUN 2G",
        "group": "weather",
        "lat": -0.9955047855889917,
        "lon": 63.71443535482829,
        "alt_km": 35798.53059365949,
        "timestamp": "2025-12-18T15:47:10.862471+00:00",
        "meta_object_name": "FENGYUN 2G",
        "meta_object_id": "2014-090A",
        "meta_epoch": "2025-12-17T18:56:05.319744",
        "meta_mean_motion": 1.00262461,
        "meta_eccentricity": 0.00028119,
        "meta_inclination": 5.1808,
        "meta_ra_of_asc_node": 75.0403,
        "meta_arg_of_pericenter": 205.1147,
        "meta_mean_anomaly": 189.902,
        "meta_ephemeris_type": 0,
        "meta_classification_type": "U",
        "meta_norad_cat_id": 40367,
        "meta_element_set_no": 999,
        "meta_rev_at_epoch": 4018,
        "meta_bstar": 0,
        "meta_mean_motion_dot": -2.79e-06,
        "meta_mean_motion_ddot": 0,
        "tle_line1": "1 40367U 14090A   25351.78895046 -.00000279  00000+0  00000+0 0  9994",
        "tle_line2": "2 40367   5.1808  75.0403 0002811 205.1147 189.9020  1.00262461 40189"
      },
      "geometry": {
        "type": "Point",
        "coordinates": [
          63.71443535482829,
          -0.9955047855889917
        ]
      }
    },
    {
      "type": "Feature",
      "properties": {
        "norad_id": 40732,
        "name": "METEOSAT-11 (MSG-4)",
        "group": "weather",
        "lat": -2.729476496593712,
        "lon": -26.47982992930709,
        "alt_km": 35789.39162090247,
        "timestamp": "2025-12-18T15:47:10.862484+00:00",
        "meta_object_name": "METEOSAT-11 (MSG-4)",
        "meta_object_id": "2015-034A",
        "meta_epoch": "2025-12-18T01:21:11.445408",
        "meta_mean_motion": 1.00269153,
        "meta_eccentricity": 8.825e-05,
        "meta_inclination": 2.7492,
        "meta_ra_of_asc_node": 71.989,
        "meta_arg_of_pericenter": 133.6701,
        "meta_mean_anomaly": 270.7845,
        "meta_ephemeris_type": 0,
        "meta_classification_type": "U",
        "meta_norad_cat_id": 40732,
        "meta_element_set_no": 999,
        "meta_rev_at_epoch": 540,
        "meta_bstar": 0,
        "meta_mean_motion_dot": 8.4e-07,
        "meta_mean_motion_ddot": 0,
        "tle_line1": "1 40732U 15034A   25352.05638247  .00000084  00000+0  00000+0 0  9991",
        "tle_line2": "2 40732   2.7492  71.9890 0000882 133.6701 270.7845  1.00269153  5404"
      },
      "geometry": {
        "type": "Point",
        "coordinates": [
          -26.47982992930709,
          -2.729476496593712
        ]
      }
    },
    {
      "type": "Feature",
      "properties": {
        "norad_id": 41105,
        "name": "ELEKTRO-L 2",
        "group": "weather",
        "lat": -5.2557682232372205,
        "lon": -50.307665231853164,
        "alt_km": 35773.25688714361,
        "timestamp": "2025-12-18T15:47:10.862515+00:00",
        "meta_object_name": "ELEKTRO-L 2",
        "meta_object_id": "2015-074A",
        "meta_epoch": "2025-12-18T01:14:27.090816",
        "meta_mean_motion": 1.00272597,
        "meta_eccentricity": 0.00035785,
        "meta_inclination": 6.2385,
        "meta_ra_of_asc_node": 72.7657,
        "meta_arg_of_pericenter": 208.6234,
        "meta_mean_anomaly": 169.659,
        "meta_ephemeris_type": 0,
        "meta_classification_type": "U",
        "meta_norad_cat_id": 41105,
        "meta_element_set_no": 999,
        "meta_rev_at_epoch": 3669,
        "meta_bstar": 0,
        "meta_mean_motion_dot": -9.7e-07,
        "meta_mean_motion_ddot": 0,
        "tle_line1": "1 41105U 15074A   25352.05170244 -.00000097  00000+0  00000+0 0  9993",
        "tle_line2": "2 41105   6.2385  72.7657 0003578 208.6234 169.6590  1.00272597 36692"
      },
      "geometry": {
        "type": "Point",
        "coordinates": [
          -50.307665231853164,
          -5.2557682232372205
        ]
      }
    },
    {
      "type": "Feature",
      "properties": {
        "norad_id": 41752,
        "name": "INSAT-3DR",
        "group": "weather",
        "lat": -0.05523054623908008,
        "lon": 38.42051851489045,
        "alt_km": 35822.23990180386,
        "timestamp": "2025-12-18T15:47:10.862530+00:00",
        "meta_object_name": "INSAT-3DR",
        "meta_object_id": "2016-054A",
        "meta_epoch": "2025-12-18T01:39:39.676608",
        "meta_mean_motion": 1.00271612,
        "meta_eccentricity": 0.00141408,
        "meta_inclination": 0.1051,
        "meta_ra_of_asc_node": 86.5996,
        "meta_arg_of_pericenter": 184.7803,
        "meta_mean_anomaly": 274.4622,
        "meta_ephemeris_type": 0,
        "meta_classification_type": "U",
        "meta_norad_cat_id": 41752,
        "meta_element_set_no": 999,
        "meta_rev_at_epoch": 3400,
        "meta_bstar": 0,
        "meta_mean_motion_dot": -5.2e-07,
        "meta_mean_motion_ddot": 0,
        "tle_line1": "1 41752U 16054A   25352.06920922 -.00000052  00000+0  00000+0 0  9998",
        "tle_line2": "2 41752   0.1051  86.5996 0014140 184.7803 274.4622  1.00271612 34006"
      },
      "geometry": {
        "type": "Point",
        "coordinates": [
          38.42051851489045,
          -0.05523054623908008
        ]
      }
    },
    {
      "type": "Feature",
      "properties": {
        "norad_id": 41836,
        "name": "HIMAWARI-9",
        "group": "weather",
        "lat": 0.03725144542553563,
        "lon": 105.06233118842485,
        "alt_km": 35792.033125381844,
        "timestamp": "2025-12-18T15:47:10.862543+00:00",
        "meta_object_name": "HIMAWARI-9",
        "meta_object_id": "2016-064A",
        "meta_epoch": "2025-12-18T01:03:38.637216",
        "meta_mean_motion": 1.00269265,
        "meta_eccentricity": 0.00019393,
        "meta_inclination": 0.0207,
        "meta_ra_of_asc_node": 333.1202,
        "meta_arg_of_pericenter": 2.5389,
        "meta_mean_anomaly": 267.9145,
        "meta_ephemeris_type": 0,
        "meta_classification_type": "U",
        "meta_norad_cat_id": 41836,
        "meta_element_set_no": 999,
        "meta_rev_at_epoch": 3339,
        "meta_bstar": 0,
        "meta_mean_motion_dot": 0,
        "meta_mean_motion_ddot": 0,
        "tle_line1": "1 41836U 16064A   25352.04419719  .00000000  00000+0  00000+0 0  9999",
        "tle_line2": "2 41836   0.0207 333.1202 0001939   2.5389 267.9145  1.00269265 33399"
      },
      "geometry": {
        "type": "Point",
        "coordinates": [
          105.06233118842485,
          0.03725144542553563
        ]
      }
    }
  ]
}